stk.v.9.0

# WrittenBy    STK_v9.2.1

BEGIN Ephemeris

NumberOfEphemerisPoints 91

ScenarioEpoch            19 May 2020 04:00:00.000

# Epoch in JDate format: 2458988.66666666666667
# Epoch in YYDDD format:   20140.16666666666667


InterpolationMethod     Lagrange

InterpolationSamplesM1      5

CentralBody             Earth

CoordinateSystem        ICRF 

# Time of first point: 19 May 2020 04:00:00.000000000 UTCG = 2458988.66666666666667 JDate = 20140.16666666666667 YYDDD

EphemerisTimePosVel

3.60000000000000e+003 -3.27138153122756e+006 -3.67536791997115e+006 -4.87737796574749e+006 6.68624032976357e+003 -2.15545226684131e+003 -2.86038176896173e+003
3.66000000000000e+003 -2.86343993545938e+006 -3.79667512694865e+006 -5.03835806659222e+006 6.90692276407896e+003 -1.88666715909894e+003 -2.50369188360354e+003
3.72000000000000e+003 -2.44314675220689e+006 -3.90160519103614e+006 -5.17760496477182e+006 7.09781185099028e+003 -1.60974382076867e+003 -2.13620220148652e+003
3.78000000000000e+003 -2.01231493656573e+006 -3.98970549129673e+006 -5.29451801201584e+006 7.25808418113330e+003 -1.32587677414430e+003 -1.75949790723496e+003
3.84000000000000e+003 -1.57280290253509e+006 -4.06059600279867e+006 -5.38859289820651e+006 7.38704841201377e+003 -1.03629049354318e+003 -1.37520393315093e+003
3.90000000000000e+003 -1.12650650665852e+006 -4.11397093587137e+006 -5.45942382674497e+006 7.48414825014695e+003 -7.42234123476707e+002 -9.84977949989728e+002
3.96000000000000e+003 -6.75350870154505e+005 -4.14960005514402e+006 -5.50670526497463e+006 7.54896485065660e+003 -4.44976090404698e+002 -5.90503216516450e+002
4.02000000000000e+003 -2.21282074812408e+005 -4.16732967267707e+006 -5.53023326211119e+006 7.58121862398271e+003 -1.45798631316101e+002 -1.93481318687376e+002
4.08000000000000e+003 2.33741231526026e+005 -4.16708331090266e+006 -5.52990632899421e+006 7.58077044190471e+003 1.54007737262612e+002 2.04375170223825e+002
4.14000000000000e+003 6.87756283689436e+005 -4.14886203251429e+006 -5.50572587586561e+006 7.54762223767781e+003 4.53149785973293e+002 6.01350076894255e+002
4.20000000000000e+003 1.13880466565987e+006 -4.11274443588284e+006 -5.45779620628648e+006 7.48191699769378e+003 7.50337151033849e+002 9.95731030748881e+002
4.26000000000000e+003 1.58494075829564e+006 -4.05888631601872e+006 -5.38632406721859e+006 7.38393814470223e+003 1.04428790028524e+003 1.38581685035437e+003
4.32000000000000e+003 2.02424013185410e+006 -3.98751999254247e+006 -5.29161775721134e+006 7.25410831525277e+003 1.33373406286818e+003 1.76992488154797e+003
4.38000000000000e+003 2.45480784711295e+006 -3.89895330756278e+006 -5.17408579654096e+006 7.09298753663170e+003 1.61742709867716e+003 2.14639825564805e+003
4.44000000000000e+003 2.87478662928288e+006 -3.79356829778459e+006 -5.03423516503839e+006 6.90127081115704e+003 1.89414328399894e+003 2.51361303643787e+003
4.50000000000000e+003 3.28236487945262e+006 -3.67181954657515e+006 -4.87266911520716e+006 6.67978511825224e+003 2.16268899010431e+003 2.86998522509341e+003
4.56000000000000e+003 3.67578448900904e+006 -3.53423222309658e+006 -4.69008457006431e+006 6.42948584723018e+003 2.42190583202370e+003 3.21397759283933e+003
4.62000000000000e+003 4.05334842332424e+006 -3.38139981696312e+006 -4.48726911692911e+006 6.15145267617491e+003 2.67067566529712e+003 3.54410631186018e+003
4.68000000000000e+003 4.41342804199689e+006 -3.21398157819478e+006 -4.26509761012677e+006 5.84688491469768e+003 2.90792540914466e+003 3.85894735586383e+003
4.74000000000000e+003 4.75447012407192e+006 -3.03269967351035e+006 -4.02452839726182e+006 5.51709633065658e+003 3.13263167525269e+003 4.15714264268815e+003
4.80000000000000e+003 5.07500356793465e+006 -2.83833607122609e+006 -3.76659918533900e+006 5.16350948315496e+003 3.34382518220910e+003 4.43740589245451e+003
4.86000000000000e+003 5.37364573697921e+006 -2.63172916819734e+006 -3.49242256456367e+006 4.78764958626354e+003 3.54059493654587e+003 4.69852817599864e+003
4.92000000000000e+003 5.64910842367878e+006 -2.41377017335293e+006 -3.20318120912980e+006 4.39113792993531e+003 3.72209216235370e+003 4.93938312964539e+003
4.98000000000000e+003 5.90020340633144e+006 -2.18539926342206e+006 -2.90012277569730e+006 3.97568488649237e+003 3.88753396251819e+003 5.15893181383324e+003
5.04000000000000e+003 6.12584757451231e+006 -1.94760152743628e+006 -2.58455452156431e+006 3.54308253285178e+003 4.03620669578464e+003 5.35622719463063e+003
5.10000000000000e+003 6.32506760112308e+006 -1.70140271749996e+006 -2.25783766574922e+006 3.09519692031455e+003 4.16746905508433e+003 5.53041822881297e+003
5.16000000000000e+003 6.49700414088576e+006 -1.44786482415876e+006 -1.92138151730623e+006 2.63396002526254e+003 4.28075483384376e+003 5.68075353487890e+003
5.22000000000000e+003 6.64091553717040e+006 -1.18808149545167e+006 -1.57663739620216e+006 2.16136141548438e+003 4.37557536834425e+003 5.80658463417105e+003
5.28000000000000e+003 6.75618102116701e+006 -9.23173319406987e+005 -1.22509237297717e+006 1.67943966807795e+003 4.45152164559667e+003 5.90736874812022e+003
5.34000000000000e+003 6.84230338960204e+006 -6.54282990331401e+005 -8.68262854193602e+005 1.19027357594895e+003 4.50826606763887e+003 5.98267113954717e+003
5.40000000000000e+003 6.89891114944891e+006 -3.82570379742417e+005 -5.07688041342528e+005 6.95973180836489e+002 4.54556386464543e+003 6.03216698792258e+003


END Ephemeris
